{
 "type": "FeatureCollection",
 "name": "delivery_routes",
 "features": [
  {
   "type": "Feature",
   "properties": {
    "id": "del-000",
    "name": "Sunset Station",
    "mode": "drone",
    "stops": 3,
    "active": false
   },
   "geometry": {
    "type": "LineString",
    "coordinates": [
     [
      -122.41842,
      37.77154
     ],
     [
      -122.42328,
      37.77331
     ],
     [
      -122.42499,
      37.77468
     ],
     [
      -122.43554,
      37.78388
     ],
     [
      -122.44516,
      37.78913
     ],
     [
      -122.44215,
      37.78442
     ],
     [
      -122.4522,
      37.77922
     ]
    ]
   }
  },
  {
   "type": "Feature",
   "properties": {
    "id": "del-001",
    "name": "West Plaza",
    "mode": "truck",
    "stops": 11,
    "active": true
   },
   "geometry": {
    "type": "LineString",
    "coordinates": [
     [
      -122.42346,
      37.78157
     ],
     [
      -122.43468,
      37.77733
     ],
     [
      -122.43989,
      37.78452
     ],
     [
      -122.45018,
      37.77919
     ],
     [
      -122.455,
      37.78501
     ],
     [
      -122.45285,
      37.79109
     ]
    ]
   }
  },
  {
   "type": "Feature",
   "properties": {
    "id": "del-002",
    "name": "Harbor Plaza",
    "mode": "bike",
    "stops": 11,
    "active": false
   },
   "geometry": {
    "type": "LineString",
    "coordinates": [
     [
      -122.40967,
      37.80359
     ],
     [
      -122.41996,
      37.79691
     ],
     [
      -122.42458,
      37.80189
     ],
     [
      -122.42292,
      37.79766
     ],
     [
      -122.43194,
      37.80143
     ]
    ]
   }
  },
  {
   "type": "Feature",
   "properties": {
    "id": "del-003",
    "name": "East Terminal",
    "mode": "van",
    "stops": 7,
    "active": true
   },
   "geometry": {
    "type": "LineString",
    "coordinates": [
     [
      -122.42436,
      37.78186
     ],
     [
      -122.41873,
      37.78393
     ],
     [
      -122.43011,
      37.77851
     ],
     [
      -122.42593,
      37.78572
     ],
     [
      -122.42384,
      37.77613
     ],
     [
      -122.41749,
      37.78256
     ],
     [
      -122.41566,
      37.78782
     ]
    ]
   }
  },
  {
   "type": "Feature",
   "properties": {
    "id": "del-004",
    "name": "South Point",
    "mode": "bike",
    "stops": 8,
    "active": true
   },
   "geometry": {
    "type": "LineString",
    "coordinates": [
     [
      -122.38521,
      37.77051
     ],
     [
      -122.385,
      37.76991
     ],
     [
      -122.3872,
      37.76633
     ],
     [
      -122.39669,
      37.75955
     ],
     [
      -122.39881,
      37.75946
     ],
     [
      -122.39491,
      37.75747
     ],
     [
      -122.38866,
      37.7482
     ]
    ]
   }
  },
  {
   "type": "Feature",
   "properties": {
    "id": "del-005",
    "name": "Central Terminal",
    "mode": "truck",
    "stops": 6,
    "active": false
   },
   "geometry": {
    "type": "LineString",
    "coordinates": [
     [
      -122.38709,
      37.76829
     ],
     [
      -122.385,
      37.76914
     ],
     [
      -122.38708,
      37.76289
     ],
     [
      -122.3904,
      37.76802
     ]
    ]
   }
  },
  {
   "type": "Feature",
   "properties": {
    "id": "del-006",
    "name": "South Center",
    "mode": "drone",
    "stops": 10,
    "active": false
   },
   "geometry": {
    "type": "LineString",
    "coordinates": [
     [
      -122.41655,
      37.80494
     ],
     [
      -122.40741,
      37.80463
     ],
     [
      -122.41872,
      37.80723
     ],
     [
      -122.41154,
      37.81
     ],
     [
      -122.41608,
      37.80027
     ],
     [
      -122.41829,
      37.79476
     ],
     [
      -122.4101,
      37.78703
     ]
    ]
   }
  },
  {
   "type": "Feature",
   "properties": {
    "id": "del-007",
    "name": "Sunset Hub",
    "mode": "truck",
    "stops": 7,
    "active": false
   },
   "geometry": {
    "type": "LineString",
    "coordinates": [
     [
      -122.41938,
      37.75914
     ],
     [
      -122.40785,
      37.75401
     ],
     [
      -122.40662,
      37.75168
     ],
     [
      -122.3965,
      37.75184
     ],
     [
      -122.3874,
      37.75912
     ],
     [
      -122.39277,
      37.76492
     ],
     [
      -122.39481,
      37.7736
     ]
    ]
   }
  },
  {
   "type": "Feature",
   "properties": {
    "id": "del-008",
    "name": "Mission Gate",
    "mode": "bike",
    "stops": 10,
    "active": false
   },
   "geometry": {
    "type": "LineString",
    "coordinates": [
     [
      -122.39638,
      37.78059
     ],
     [
      -122.38761,
      37.77952
     ],
     [
      -122.38799,
      37.77617
     ],
     [
      -122.385,
      37.77371
     ],
     [
      -122.385,
      37.7811
     ],
     [
      -122.385,
      37.77588
     ],
     [
      -122.38781,
      37.783
     ]
    ]
   }
  },
  {
   "type": "Feature",
   "properties": {
    "id": "del-009",
    "name": "Marina Gate",
    "mode": "drone",
    "stops": 9,
    "active": true
   },
   "geometry": {
    "type": "LineString",
    "coordinates": [
     [
      -122.42797,
      37.78646
     ],
     [
      -122.42808,
      37.7772
     ],
     [
      -122.42803,
      37.779
     ],
     [
      -122.41916,
      37.78648
     ],
     [
      -122.42059,
      37.787
     ]
    ]
   }
  },
  {
   "type": "Feature",
   "properties": {
    "id": "del-010",
    "name": "Park Junction",
    "mode": "truck",
    "stops": 12,
    "active": true
   },
   "geometry": {
    "type": "LineString",
    "coordinates": [
     [
      -122.44976,
      37.79471
     ],
     [
      -122.45363,
      37.79856
     ],
     [
      -122.45003,
      37.8056
     ],
     [
      -122.44157,
      37.81
     ],
     [
      -122.44445,
      37.80633
     ],
     [
      -122.4392,
      37.81
     ]
    ]
   }
  },
  {
   "type": "Feature",
   "properties": {
    "id": "del-011",
    "name": "Hill Gate",
    "mode": "bike",
    "stops": 8,
    "active": false
   },
   "geometry": {
    "type": "LineString",
    "coordinates": [
     [
      -122.43857,
      37.78791
     ],
     [
      -122.42663,
      37.79285
     ],
     [
      -122.42821,
      37.78482
     ],
     [
      -122.425,
      37.79227
     ],
     [
      -122.42635,
      37.79615
     ],
     [
      -122.41667,
      37.78707
     ]
    ]
   }
  },
  {
   "type": "Feature",
   "properties": {
    "id": "del-012",
    "name": "North Field",
    "mode": "van",
    "stops": 7,
    "active": true
   },
   "geometry": {
    "type": "LineString",
    "coordinates": [
     [
      -122.42485,
      37.75709
     ],
     [
      -122.42327,
      37.76294
     ],
     [
      -122.43119,
      37.75452
     ],
     [
      -122.42229,
      37.75691
     ],
     [
      -122.42851,
      37.76517
     ],
     [
      -122.43708,
      37.76439
     ],
     [
      -122.44298,
      37.7595
     ]
    ]
   }
  },
  {
   "type": "Feature",
   "properties": {
    "id": "del-013",
    "name": "Harbor Hub",
    "mode": "truck",
    "stops": 9,
    "active": false
   },
   "geometry": {
    "type": "LineString",
    "coordinates": [
     [
      -122.44983,
      37.80617
     ],
     [
      -122.4465,
      37.80466
     ],
     [
      -122.4525,
      37.81
     ],
     [
      -122.455,
      37.80769
     ],
     [
      -122.455,
      37.80243
     ],
     [
      -122.45327,
      37.80393
     ]
    ]
   }
  }
 ]
}