{
 "type": "FeatureCollection",
 "name": "service_areas",
 "features": [
  {
   "type": "Feature",
   "properties": {
    "id": "ser-000",
    "name": "Union Works",
    "tier": "bronze",
    "population": 33053
   },
   "geometry": {
    "type": "Polygon",
    "coordinates": [
     [
      [
       -122.44264,
       37.80055
      ],
      [
       -122.44708,
       37.80792
      ],
      [
       -122.45705,
       37.80974
      ],
      [
       -122.46505,
       37.80464
      ],
      [
       -122.46505,
       37.79646
      ],
      [
       -122.45705,
       37.79136
      ],
      [
       -122.44708,
       37.79318
      ],
      [
       -122.44264,
       37.80055
      ]
     ]
    ]
   }
  },
  {
   "type": "Feature",
   "properties": {
    "id": "ser-001",
    "name": "Market Yard",
    "tier": "bronze",
    "population": 12960
   },
   "geometry": {
    "type": "Polygon",
    "coordinates": [
     [
      [
       -122.38784,
       37.80321
      ],
      [
       -122.39396,
       37.80995
      ],
      [
       -122.40387,
       37.80737
      ],
      [
       -122.40387,
       37.79905
      ],
      [
       -122.39396,
       37.79647
      ],
      [
       -122.38784,
       37.80321
      ]
     ]
    ]
   }
  },
  {
   "type": "Feature",
   "properties": {
    "id": "ser-002",
    "name": "Central Crossing",
    "tier": "gold",
    "population": 41672
   },
   "geometry": {
    "type": "Polygon",
    "coordinates": [
     [
      [
       -122.4014,
       37.78744
      ],
      [
       -122.40522,
       37.79378
      ],
      [
       -122.4138,
       37.79535
      ],
      [
       -122.42068,
       37.79096
      ],
      [
       -122.42068,
       37.78392
      ],
      [
       -122.4138,
       37.77953
      ],
      [
       -122.40522,
       37.7811
      ],
      [
       -122.4014,
       37.78744
      ]
     ]
    ]
   }
  },
  {
   "type": "Feature",
   "properties": {
    "id": "ser-003",
    "name": "Marina Gate",
    "tier": "bronze",
    "population": 24411
   },
   "geometry": {
    "type": "Polygon",
    "coordinates": [
     [
      [
       -122.44173,
       37.78392
      ],
      [
       -122.4462,
       37.78884
      ],
      [
       -122.45344,
       37.78696
      ],
      [
       -122.45344,
       37.78088
      ],
      [
       -122.4462,
       37.779
      ],
      [
       -122.44173,
       37.78392
      ]
     ]
    ]
   }
  },
  {
   "type": "Feature",
   "properties": {
    "id": "ser-004",
    "name": "Mission Depot",
    "tier": "gold",
    "population": 9161
   },
   "geometry": {
    "type": "Polygon",
    "coordinates": [
     [
      [
       -122.39712,
       37.74631
      ],
      [
       -122.40042,
       37.75089
      ],
      [
       -122.40704,
       37.75089
      ],
      [
       -122.41034,
       37.74631
      ],
      [
       -122.40704,
       37.74173
      ],
      [
       -122.40042,
       37.74173
      ],
      [
       -122.39712,
       37.74631
      ]
     ]
    ]
   }
  },
  {
   "type": "Feature",
   "properties": {
    "id": "ser-005",
    "name": "Union Hub",
    "tier": "gold",
    "population": 17340
   },
   "geometry": {
    "type": "Polygon",
    "coordinates": [
     [
      [
       -122.39169,
       37.80135
      ],
      [
       -122.39582,
       37.80706
      ],
      [
       -122.40406,
       37.80706
      ],
      [
       -122.40819,
       37.80135
      ],
      [
       -122.40406,
       37.79564
      ],
      [
       -122.39582,
       37.79564
      ],
      [
       -122.39169,
       37.80135
      ]
     ]
    ]
   }
  },
  {
   "type": "Feature",
   "properties": {
    "id": "ser-006",
    "name": "Market Field",
    "tier": "gold",
    "population": 31192
   },
   "geometry": {
    "type": "Polygon",
    "coordinates": [
     [
      [
       -122.38105,
       37.80609
      ],
      [
       -122.38603,
       37.813
      ],
      [
       -122.39601,
       37.813
      ],
      [
       -122.40099,
       37.80609
      ],
      [
       -122.39601,
       37.79918
      ],
      [
       -122.38603,
       37.79918
      ],
      [
       -122.38105,
       37.80609
      ]
     ]
    ]
   }
  },
  {
   "type": "Feature",
   "properties": {
    "id": "ser-007",
    "name": "Harbor Center",
    "tier": "silver",
    "population": 37024
   },
   "geometry": {
    "type": "Polygon",
    "coordinates": [
     [
      [
       -122.37672,
       37.74985
      ],
      [
       -122.38424,
       37.75813
      ],
      [
       -122.3964,
       37.75497
      ],
      [
       -122.3964,
       37.74473
      ],
      [
       -122.38424,
       37.74157
      ],
      [
       -122.37672,
       37.74985
      ]
     ]
    ]
   }
  },
  {
   "type": "Feature",
   "properties": {
    "id": "ser-008",
    "name": "South Terminal",
    "tier": "silver",
    "population": 44594
   },
   "geometry": {
    "type": "Polygon",
    "coordinates": [
     [
      [
       -122.42328,
       37.79535
      ],
      [
       -122.42751,
       37.8
      ],
      [
       -122.43435,
       37.79823
      ],
      [
       -122.43435,
       37.79247
      ],
      [
       -122.42751,
       37.7907
      ],
      [
       -122.42328,
       37.79535
      ]
     ]
    ]
   }
  },
  {
   "type": "Feature",
   "properties": {
    "id": "ser-009",
    "name": "Market Station",
    "tier": "bronze",
    "population": 15823
   },
   "geometry": {
    "type": "Polygon",
    "coordinates": [
     [
      [
       -122.39199,
       37.75835
      ],
      [
       -122.39728,
       37.76568
      ],
      [
       -122.40786,
       37.76568
      ],
      [
       -122.41315,
       37.75835
      ],
      [
       -122.40786,
       37.75102
      ],
      [
       -122.39728,
       37.75102
      ],
      [
       -122.39199,
       37.75835
      ]
     ]
    ]
   }
  }
 ]
}